[{"OBJECT_NAME":"STARLINK-1413","OBJECT_ID":"2020-035AJ","EPOCH":"2026-03-09T23:07:21.119232","MEAN_MOTION":15.30196842,"ECCENTRICITY":0.00013861,"INCLINATION":53.1621,"RA_OF_ASC_NODE":48.3049,"ARG_OF_PERICENTER":76.6572,"MEAN_ANOMALY":283.4583,"EPHEMERIS_TYPE":0,"CLASSIFICATION_TYPE":"U","NORAD_CAT_ID":45689,"ELEMENT_SET_NO":999,"REV_AT_EPOCH":31893,"BSTAR":1.4614986e-5,"MEAN_MOTION_DOT":7.4e-7,"MEAN_MOTION_DDOT":0},{"OBJECT_NAME":"TRANSPORTER-10 OBJECT AD","OBJECT_ID":"2024-043AD","EPOCH":"2026-03-09T20:38:52.416960","MEAN_MOTION":15.34189901,"ECCENTRICITY":0.00089841,"INCLINATION":97.547,"RA_OF_ASC_NODE":207.3753,"ARG_OF_PERICENTER":221.4908,"MEAN_ANOMALY":138.5653,"EPHEMERIS_TYPE":0,"CLASSIFICATION_TYPE":"U","NORAD_CAT_ID":59125,"ELEMENT_SET_NO":999,"REV_AT_EPOCH":11202,"BSTAR":0.00036310552,"MEAN_MOTION_DOT":0.00011954,"MEAN_MOTION_DDOT":0}]
